{"type":"FeatureCollection","features":[{"type":"Feature","properties":{"Volcano Name":"Submarine Volcano NNE of Iriomotejima","LastEruption":"1924 CE","Status":"Active"},"geometry":{"type":"Point","coordinates":[123.93,24.57]}},{"type":"Feature","properties":{"Volcano Name":"Io-Torishima","LastEruption":"1968 CE","Status":"Active"},"geometry":{"type":"Point","coordinates":[128.223,27.881]}},{"type":"Feature","properties":{"Volcano Name":"Yokoatejima","LastEruption":"1835 CE","Status":"Active"},"geometry":{"type":"Point","coordinates":[128.997,28.797]}},{"type":"Feature","properties":{"Volcano Name":"Akusekijima","LastEruption":"Unknown","Status":"Active"},"geometry":{"type":"Point","coordinates":[129.594,29.465]}},{"type":"Feature","properties":{"Volcano Name":"Suwanosejima","LastEruption":"2026 CE","Status":"Active"},"geometry":{"type":"Point","coordinates":[129.714,29.638]}},{"type":"Feature","properties":{"Volcano Name":"Nakanoshima","LastEruption":"1914 CE","Status":"Active"},"geometry":{"type":"Point","coordinates":[129.857,29.859]}},{"type":"Feature","properties":{"Volcano Name":"Kuchinoshima","LastEruption":"1190 CE","Status":"Active"},"geometry":{"type":"Point","coordinates":[129.926,29.968]}},{"type":"Feature","properties":{"Volcano Name":"Kuchinoerabujima","LastEruption":"2020 CE","Status":"Active"},"geometry":{"type":"Point","coordinates":[130.217,30.443]}},{"type":"Feature","properties":{"Volcano Name":"Kikai","LastEruption":"2025 CE","Status":"Active"},"geometry":{"type":"Point","coordinates":[130.305,30.793]}},{"type":"Feature","properties":{"Volcano Name":"Ata","LastEruption":"885 CE","Status":"Active"},"geometry":{"type":"Point","coordinates":[130.57,31.22]}},{"type":"Feature","properties":{"Volcano Name":"Aira","LastEruption":"2026 CE","Status":"Active"},"geometry":{"type":"Point","coordinates":[130.6589,31.5772]}},{"type":"Feature","properties":{"Volcano Name":"Yonemaru-Sumiyoshiike","LastEruption":"6200 BCE","Status":"Active"},"geometry":{"type":"Point","coordinates":[130.592,31.771]}},{"type":"Feature","properties":{"Volcano Name":"Kirishimayama","LastEruption":"2025 CE","Status":"Active"},"geometry":{"type":"Point","coordinates":[130.862,31.934]}},{"type":"Feature","properties":{"Volcano Name":"Fukue","LastEruption":"400 BCE","Status":"Active"},"geometry":{"type":"Point","coordinates":[128.849,32.657]}},{"type":"Feature","properties":{"Volcano Name":"Unzendake","LastEruption":"1996 CE","Status":"Active"},"geometry":{"type":"Point","coordinates":[130.299,32.761]}},{"type":"Feature","properties":{"Volcano Name":"Asosan","LastEruption":"2021 CE","Status":"Active"},"geometry":{"type":"Point","coordinates":[131.085,32.8849]}},{"type":"Feature","properties":{"Volcano Name":"Kujusan","LastEruption":"1996 CE","Status":"Active"},"geometry":{"type":"Point","coordinates":[131.249,33.086]}},{"type":"Feature","properties":{"Volcano Name":"Yufu-Tsurumi","LastEruption":"867 CE","Status":"Active"},"geometry":{"type":"Point","coordinates":[131.39,33.282]}},{"type":"Feature","properties":{"Volcano Name":"Abu","LastEruption":"6850 BCE","Status":"Active"},"geometry":{"type":"Point","coordinates":[131.5167,34.4833]}},{"type":"Feature","properties":{"Volcano Name":"Sanbesan","LastEruption":"650 CE","Status":"Active"},"geometry":{"type":"Point","coordinates":[132.622,35.141]}},{"type":"Feature","properties":{"Volcano Name":"Izu-Tobu","LastEruption":"1989 CE","Status":"Active"},"geometry":{"type":"Point","coordinates":[139.098,34.9]}},{"type":"Feature","properties":{"Volcano Name":"Hakoneyama","LastEruption":"2015 CE","Status":"Active"},"geometry":{"type":"Point","coordinates":[139.021,35.233]}},{"type":"Feature","properties":{"Volcano Name":"Fujisan","LastEruption":"1708 CE","Status":"Active"},"geometry":{"type":"Point","coordinates":[138.728,35.361]}},{"type":"Feature","properties":{"Volcano Name":"Yokodake","LastEruption":"1200 CE","Status":"Active"},"geometry":{"type":"Point","coordinates":[138.32,36.087]}},{"type":"Feature","properties":{"Volcano Name":"Ontakesan","LastEruption":"2014 CE","Status":"Active"},"geometry":{"type":"Point","coordinates":[137.48,35.893]}},{"type":"Feature","properties":{"Volcano Name":"Hakusan","LastEruption":"1659 CE","Status":"Active"},"geometry":{"type":"Point","coordinates":[136.771,36.155]}},{"type":"Feature","properties":{"Volcano Name":"Norikuradake","LastEruption":"50 BCE","Status":"Active"},"geometry":{"type":"Point","coordinates":[137.554,36.106]}},{"type":"Feature","properties":{"Volcano Name":"Akandanayama","LastEruption":"Unknown","Status":"Active"},"geometry":{"type":"Point","coordinates":[137.573,36.2]}},{"type":"Feature","properties":{"Volcano Name":"Yakedake","LastEruption":"1995 CE","Status":"Active"},"geometry":{"type":"Point","coordinates":[137.587,36.227]}},{"type":"Feature","properties":{"Volcano Name":"Midagahara","LastEruption":"1839 CE","Status":"Active"},"geometry":{"type":"Point","coordinates":[137.59,36.571]}},{"type":"Feature","properties":{"Volcano Name":"Niigata-Yakeyama","LastEruption":"1998 CE","Status":"Active"},"geometry":{"type":"Point","coordinates":[138.036,36.921]}},{"type":"Feature","properties":{"Volcano Name":"Myokosan","LastEruption":"750 BCE","Status":"Active"},"geometry":{"type":"Point","coordinates":[138.114,36.891]}},{"type":"Feature","properties":{"Volcano Name":"Asamayama","LastEruption":"2019 CE","Status":"Active"},"geometry":{"type":"Point","coordinates":[138.523,36.406]}},{"type":"Feature","properties":{"Volcano Name":"Kusatsu-Shiranesan","LastEruption":"2018 CE","Status":"Active"},"geometry":{"type":"Point","coordinates":[138.528,36.618]}},{"type":"Feature","properties":{"Volcano Name":"Shiga","LastEruption":"Unknown","Status":"Active"},"geometry":{"type":"Point","coordinates":[138.519,36.688]}},{"type":"Feature","properties":{"Volcano Name":"Harunasan","LastEruption":"550 CE","Status":"Active"},"geometry":{"type":"Point","coordinates":[138.851,36.477]}},{"type":"Feature","properties":{"Volcano Name":"Akagisan","LastEruption":"Unknown","Status":"Active"},"geometry":{"type":"Point","coordinates":[139.193,36.56]}},{"type":"Feature","properties":{"Volcano Name":"Hiuchigatake","LastEruption":"1544 CE","Status":"Active"},"geometry":{"type":"Point","coordinates":[139.285,36.955]}},{"type":"Feature","properties":{"Volcano Name":"Nikko-Shiranesan","LastEruption":"1952 CE","Status":"Active"},"geometry":{"type":"Point","coordinates":[139.376,36.799]}},{"type":"Feature","properties":{"Volcano Name":"Nantaisan","LastEruption":"9540 BCE","Status":"Active"},"geometry":{"type":"Point","coordinates":[139.491,36.765]}},{"type":"Feature","properties":{"Volcano Name":"Omanago Group","LastEruption":"3050 BCE","Status":"Active"},"geometry":{"type":"Point","coordinates":[139.4756,36.8067]}},{"type":"Feature","properties":{"Volcano Name":"Takaharayama","LastEruption":"4570 BCE","Status":"Active"},"geometry":{"type":"Point","coordinates":[139.777,36.9]}},{"type":"Feature","properties":{"Volcano Name":"Nasudake","LastEruption":"1963 CE","Status":"Active"},"geometry":{"type":"Point","coordinates":[139.963,37.125]}},{"type":"Feature","properties":{"Volcano Name":"Numazawa","LastEruption":"3400 BCE","Status":"Active"},"geometry":{"type":"Point","coordinates":[139.566,37.444]}},{"type":"Feature","properties":{"Volcano Name":"Bandaisan","LastEruption":"1888 CE","Status":"Active"},"geometry":{"type":"Point","coordinates":[140.072,37.601]}},{"type":"Feature","properties":{"Volcano Name":"Adatarayama","LastEruption":"1996 CE","Status":"Active"},"geometry":{"type":"Point","coordinates":[140.281,37.647]}},{"type":"Feature","properties":{"Volcano Name":"Azumayama","LastEruption":"1977 CE","Status":"Active"},"geometry":{"type":"Point","coordinates":[140.244,37.735]}},{"type":"Feature","properties":{"Volcano Name":"Zaozan [Zaosan]","LastEruption":"1940 CE","Status":"Active"},"geometry":{"type":"Point","coordinates":[140.44,38.144]}},{"type":"Feature","properties":{"Volcano Name":"Hijiori","LastEruption":"Unknown","Status":"Active"},"geometry":{"type":"Point","coordinates":[140.1617,38.5992]}},{"type":"Feature","properties":{"Volcano Name":"Naruko","LastEruption":"837 CE","Status":"Active"},"geometry":{"type":"Point","coordinates":[140.734,38.729]}},{"type":"Feature","properties":{"Volcano Name":"Kurikomayama","LastEruption":"1950 CE","Status":"Active"},"geometry":{"type":"Point","coordinates":[140.788,38.961]}},{"type":"Feature","properties":{"Volcano Name":"Chokaisan","LastEruption":"1974 CE","Status":"Active"},"geometry":{"type":"Point","coordinates":[140.049,39.099]}},{"type":"Feature","properties":{"Volcano Name":"Akita-Komagatake","LastEruption":"1971 CE","Status":"Active"},"geometry":{"type":"Point","coordinates":[140.799,39.761]}},{"type":"Feature","properties":{"Volcano Name":"Iwatesan","LastEruption":"1919 CE","Status":"Active"},"geometry":{"type":"Point","coordinates":[141.001,39.853]}},{"type":"Feature","properties":{"Volcano Name":"Hachimantai","LastEruption":"5350 BCE","Status":"Active"},"geometry":{"type":"Point","coordinates":[140.854,39.958]}},{"type":"Feature","properties":{"Volcano Name":"Akita-Yakeyama","LastEruption":"1997 CE","Status":"Active"},"geometry":{"type":"Point","coordinates":[140.757,39.964]}},{"type":"Feature","properties":{"Volcano Name":"Megata","LastEruption":"2050 BCE","Status":"Active"},"geometry":{"type":"Point","coordinates":[139.725,39.95]}},{"type":"Feature","properties":{"Volcano Name":"Iwakisan","LastEruption":"1863 CE","Status":"Active"},"geometry":{"type":"Point","coordinates":[140.303,40.656]}},{"type":"Feature","properties":{"Volcano Name":"Towada","LastEruption":"915 CE","Status":"Active"},"geometry":{"type":"Point","coordinates":[140.88,40.51]}},{"type":"Feature","properties":{"Volcano Name":"Hakkodasan","LastEruption":"1550 CE","Status":"Active"},"geometry":{"type":"Point","coordinates":[140.877,40.659]}},{"type":"Feature","properties":{"Volcano Name":"Osorezan","LastEruption":"1787 CE","Status":"Active"},"geometry":{"type":"Point","coordinates":[141.12,41.279]}},{"type":"Feature","properties":{"Volcano Name":"Izu-Oshima","LastEruption":"1990 CE","Status":"Active"},"geometry":{"type":"Point","coordinates":[139.394,34.724]}},{"type":"Feature","properties":{"Volcano Name":"Toshima","LastEruption":"4550 BCE","Status":"Active"},"geometry":{"type":"Point","coordinates":[139.279,34.52]}},{"type":"Feature","properties":{"Volcano Name":"Niijima","LastEruption":"886 CE","Status":"Active"},"geometry":{"type":"Point","coordinates":[139.27,34.397]}},{"type":"Feature","properties":{"Volcano Name":"Kozushima","LastEruption":"838 CE","Status":"Active"},"geometry":{"type":"Point","coordinates":[139.153,34.219]}},{"type":"Feature","properties":{"Volcano Name":"Miyakejima","LastEruption":"2010 CE","Status":"Active"},"geometry":{"type":"Point","coordinates":[139.526,34.094]}},{"type":"Feature","properties":{"Volcano Name":"Mikurajima","LastEruption":"4100 BCE","Status":"Active"},"geometry":{"type":"Point","coordinates":[139.602,33.874]}},{"type":"Feature","properties":{"Volcano Name":"Kurose Hole","LastEruption":"Unknown","Status":"Active"},"geometry":{"type":"Point","coordinates":[139.68,33.4]}},{"type":"Feature","properties":{"Volcano Name":"Hachijojima","LastEruption":"1606 CE","Status":"Active"},"geometry":{"type":"Point","coordinates":[139.766,33.137]}},{"type":"Feature","properties":{"Volcano Name":"Aogashima","LastEruption":"1785 CE","Status":"Active"},"geometry":{"type":"Point","coordinates":[139.759,32.458]}},{"type":"Feature","properties":{"Volcano Name":"Kita-Bayonnaise","LastEruption":"Unknown","Status":"Active"},"geometry":{"type":"Point","coordinates":[139.85,32.1]}},{"type":"Feature","properties":{"Volcano Name":"Myojinsho","LastEruption":"1970 CE","Status":"Active"},"geometry":{"type":"Point","coordinates":[139.918,31.888]}},{"type":"Feature","properties":{"Volcano Name":"Sumisujima","LastEruption":"1916 CE","Status":"Active"},"geometry":{"type":"Point","coordinates":[140.051,31.44]}},{"type":"Feature","properties":{"Volcano Name":"Izu-Torishima","LastEruption":"2002 CE","Status":"Active"},"geometry":{"type":"Point","coordinates":[140.303,30.484]}},{"type":"Feature","properties":{"Volcano Name":"Sofugan","LastEruption":"Unknown","Status":"Active"},"geometry":{"type":"Point","coordinates":[140.342,29.794]}},{"type":"Feature","properties":{"Volcano Name":"Suiyo Seamount","LastEruption":"Unknown","Status":"Active"},"geometry":{"type":"Point","coordinates":[140.633,28.575]}},{"type":"Feature","properties":{"Volcano Name":"Mokuyo Seamount","LastEruption":"Unknown","Status":"Active"},"geometry":{"type":"Point","coordinates":[140.572,28.327]}},{"type":"Feature","properties":{"Volcano Name":"Doyo Seamount","LastEruption":"Unknown","Status":"Active"},"geometry":{"type":"Point","coordinates":[140.8,27.68]}},{"type":"Feature","properties":{"Volcano Name":"Nishinoshima","LastEruption":"2023 CE","Status":"Active"},"geometry":{"type":"Point","coordinates":[140.874,27.247]}},{"type":"Feature","properties":{"Volcano Name":"Kaikata Seamount","LastEruption":"Unknown","Status":"Active"},"geometry":{"type":"Point","coordinates":[140.929,26.667]}},{"type":"Feature","properties":{"Volcano Name":"Kaitoku Seamount","LastEruption":"2023 CE","Status":"Active"},"geometry":{"type":"Point","coordinates":[141.0955,26.1217]}},{"type":"Feature","properties":{"Volcano Name":"Kita-Ioto","LastEruption":"2022 CE","Status":"Active"},"geometry":{"type":"Point","coordinates":[141.284,25.424]}},{"type":"Feature","properties":{"Volcano Name":"Ioto","LastEruption":"2025 CE","Status":"Active"},"geometry":{"type":"Point","coordinates":[141.289,24.751]}},{"type":"Feature","properties":{"Volcano Name":"Kita-Fukutokutai","LastEruption":"1954 CE","Status":"Active"},"geometry":{"type":"Point","coordinates":[141.417,24.417]}},{"type":"Feature","properties":{"Volcano Name":"Fukutoku-Oka-no-Ba","LastEruption":"2021 CE","Status":"Active"},"geometry":{"type":"Point","coordinates":[141.481,24.285]}},{"type":"Feature","properties":{"Volcano Name":"Minami-Hiyoshi","LastEruption":"1975 CE","Status":"Active"},"geometry":{"type":"Point","coordinates":[141.935,23.5]}},{"type":"Feature","properties":{"Volcano Name":"Nikko","LastEruption":"Unknown","Status":"Active"},"geometry":{"type":"Point","coordinates":[142.326,23.078]}},{"type":"Feature","properties":{"Volcano Name":"Oshima-Oshima","LastEruption":"1790 CE","Status":"Active"},"geometry":{"type":"Point","coordinates":[139.367,41.51]}},{"type":"Feature","properties":{"Volcano Name":"Esan","LastEruption":"1874 CE","Status":"Active"},"geometry":{"type":"Point","coordinates":[141.166,41.805]}},{"type":"Feature","properties":{"Volcano Name":"Hokkaido-Komagatake","LastEruption":"2000 CE","Status":"Active"},"geometry":{"type":"Point","coordinates":[140.677,42.063]}},{"type":"Feature","properties":{"Volcano Name":"Toya","LastEruption":"2001 CE","Status":"Active"},"geometry":{"type":"Point","coordinates":[140.839,42.544]}},{"type":"Feature","properties":{"Volcano Name":"Niseko","LastEruption":"4900 BCE","Status":"Active"},"geometry":{"type":"Point","coordinates":[140.659,42.875]}},{"type":"Feature","properties":{"Volcano Name":"Yoteizan","LastEruption":"1050 BCE","Status":"Active"},"geometry":{"type":"Point","coordinates":[140.812,42.827]}},{"type":"Feature","properties":{"Volcano Name":"Kuttara","LastEruption":"1820 CE","Status":"Active"},"geometry":{"type":"Point","coordinates":[141.16,42.491]}},{"type":"Feature","properties":{"Volcano Name":"Shikotsu","LastEruption":"1981 CE","Status":"Active"},"geometry":{"type":"Point","coordinates":[141.38,42.688]}},{"type":"Feature","properties":{"Volcano Name":"Rishirizan","LastEruption":"5830 BCE","Status":"Active"},"geometry":{"type":"Point","coordinates":[141.242,45.179]}},{"type":"Feature","properties":{"Volcano Name":"Tokachidake","LastEruption":"2004 CE","Status":"Active"},"geometry":{"type":"Point","coordinates":[142.686,43.418]}},{"type":"Feature","properties":{"Volcano Name":"Taisetsuzan","LastEruption":"1739 CE","Status":"Active"},"geometry":{"type":"Point","coordinates":[142.854,43.664]}},{"type":"Feature","properties":{"Volcano Name":"Maruyama","LastEruption":"1898 CE","Status":"Active"},"geometry":{"type":"Point","coordinates":[143.031,43.418]}},{"type":"Feature","properties":{"Volcano Name":"Akan","LastEruption":"2026 CE","Status":"Active"},"geometry":{"type":"Point","coordinates":[144.013,43.384]}},{"type":"Feature","properties":{"Volcano Name":"Kussharo","LastEruption":"1320 CE","Status":"Active"},"geometry":{"type":"Point","coordinates":[144.427,43.615]}},{"type":"Feature","properties":{"Volcano Name":"Mashu","LastEruption":"1080 CE","Status":"Active"},"geometry":{"type":"Point","coordinates":[144.561,43.572]}},{"type":"Feature","properties":{"Volcano Name":"Rausudake","LastEruption":"1800 CE","Status":"Active"},"geometry":{"type":"Point","coordinates":[145.122,44.076]}},{"type":"Feature","properties":{"Volcano Name":"Tenchozan","LastEruption":"Unknown","Status":"Active"},"geometry":{"type":"Point","coordinates":[145.086,44.044]}},{"type":"Feature","properties":{"Volcano Name":"Shiretoko-Iozan","LastEruption":"1936 CE","Status":"Active"},"geometry":{"type":"Point","coordinates":[145.161,44.133]}}]}