{"type":"FeatureCollection","features":[{"type":"Feature","properties":{"Name":"Akaigawa Caldera","ElevationMeters":725,"ElevationFeet":2379,"LastEruption":"~1.3 million years ago","Region":"Hokkaido"},"geometry":{"type":"Point","coordinates":[140.817,43.083]}},{"type":"Feature","properties":{"Name":"Mount Atosanupuri","ElevationMeters":512,"ElevationFeet":1680,"LastEruption":"950-1750","Region":"Hokkaido"},"geometry":{"type":"Point","coordinates":[144.438,43.61]}},{"type":"Feature","properties":{"Name":"Daisetsuzan Volcanic Group","ElevationMeters":2290,"ElevationFeet":7513,"LastEruption":1739,"Region":"Hokkaido"},"geometry":{"type":"Point","coordinates":[142.854,43.663]}},{"type":"Feature","properties":{"Name":"Mount Eniwa","ElevationMeters":1320,"ElevationFeet":4331,"LastEruption":1707,"Region":"Hokkaido"},"geometry":{"type":"Point","coordinates":[141.285,42.793]}},{"type":"Feature","properties":{"Name":"Mount Esan","ElevationMeters":613,"ElevationFeet":2028,"LastEruption":1874,"Region":"Hokkaido"},"geometry":{"type":"Point","coordinates":[141.166,41.804]}},{"type":"Feature","properties":{"Name":"Akan Caldera","ElevationMeters":"-","ElevationFeet":"-","LastEruption":"~250,000 years ago","Region":"Hokkaido"},"geometry":{"type":"Point","coordinates":[144.11,43.451]}},{"type":"Feature","properties":{"Name":"Mount Meakan","ElevationMeters":1499,"ElevationFeet":4916,"LastEruption":2008,"Region":"Hokkaido"},"geometry":{"type":"Point","coordinates":[144.008,43.386]}},{"type":"Feature","properties":{"Name":"Mount Oakan","ElevationMeters":1370,"ElevationFeet":4495,"LastEruption":"~5000-2500 years ago","Region":"Hokkaido"},"geometry":{"type":"Point","coordinates":[144.163,43.453]}},{"type":"Feature","properties":{"Name":"Mount Io","ElevationMeters":1563,"ElevationFeet":5128,"LastEruption":1936,"Region":"Hokkaido"},"geometry":{"type":"Point","coordinates":[145.165,44.131]}},{"type":"Feature","properties":{"Name":"Kussharo Caldera","ElevationMeters":"-","ElevationFeet":"-","LastEruption":350,"Region":"Hokkaido"},"geometry":{"type":"Point","coordinates":[144.336,43.621]}},{"type":"Feature","properties":{"Name":"Kuttara Caldera","ElevationMeters":581,"ElevationFeet":1906,"LastEruption":"~40,000 years ago","Region":"Hokkaido"},"geometry":{"type":"Point","coordinates":[141.175,42.499]}},{"type":"Feature","properties":{"Name":"Mashu Caldera","ElevationMeters":855,"ElevationFeet":2805,"LastEruption":"~950 AD","Region":"Hokkaido"},"geometry":{"type":"Point","coordinates":[144.565,43.57]}},{"type":"Feature","properties":{"Name":"Nigorigawa Caldera","ElevationMeters":356,"ElevationFeet":1168,"LastEruption":"~15,000 years ago","Region":"Hokkaido"},"geometry":{"type":"Point","coordinates":[140.45,42.12]}},{"type":"Feature","properties":{"Name":"Nipesotsu-Maruyama Volcanic Group","ElevationMeters":2013,"ElevationFeet":6604,"LastEruption":1898,"Region":"Hokkaido"},"geometry":{"type":"Point","coordinates":[143.036,43.453]}},{"type":"Feature","properties":{"Name":"Niseko Volcanic Group","ElevationMeters":1309,"ElevationFeet":4295,"LastEruption":"~6000 years ago","Region":"Hokkaido"},"geometry":{"type":"Point","coordinates":[140.63,42.88]}},{"type":"Feature","properties":{"Name":"Mount Onnebetsu","ElevationMeters":1330,"ElevationFeet":4364,"LastEruption":"~200,000 years ago","Region":"Hokkaido"},"geometry":{"type":"Point","coordinates":[145.013,43.993]}},{"type":"Feature","properties":{"Name":"Oshima-Oshima","ElevationMeters":737,"ElevationFeet":2418,"LastEruption":1759,"Region":"Hokkaido"},"geometry":{"type":"Point","coordinates":[139.37,41.5]}},{"type":"Feature","properties":{"Name":"Mount Rausu","ElevationMeters":1661,"ElevationFeet":5449,"LastEruption":1800,"Region":"Hokkaido"},"geometry":{"type":"Point","coordinates":[145.122,44.075]}},{"type":"Feature","properties":{"Name":"Mount Rishiri","ElevationMeters":1721,"ElevationFeet":5646,"LastEruption":"~7800 years ago","Region":"Hokkaido"},"geometry":{"type":"Point","coordinates":[141.25,45.18]}},{"type":"Feature","properties":{"Name":"Shikaribetsu Volcano Group","ElevationMeters":1430,"ElevationFeet":4692,"LastEruption":"~20,000 years ago","Region":"Hokkaido"},"geometry":{"type":"Point","coordinates":[143.096,43.312]}},{"type":"Feature","properties":{"Name":"Shikotsu Caldera","ElevationMeters":1320,"ElevationFeet":4331,"LastEruption":1978,"Region":"Hokkaido"},"geometry":{"type":"Point","coordinates":[141.327,42.753]}},{"type":"Feature","properties":{"Name":"Mount Shiribetsu","ElevationMeters":1107,"ElevationFeet":3632,"LastEruption":"Unknown","Region":"Hokkaido"},"geometry":{"type":"Point","coordinates":[140.916,42.767]}},{"type":"Feature","properties":{"Name":"Toya Caldera","ElevationMeters":"-","ElevationFeet":"-","LastEruption":"~40,000–30,000 years ago","Region":"Hokkaido"},"geometry":{"type":"Point","coordinates":[140.851,42.602]}},{"type":"Feature","properties":{"Name":"Mount Hokkaido-Komagatake","ElevationMeters":1131,"ElevationFeet":3711,"LastEruption":2000,"Region":"Hokkaido"},"geometry":{"type":"Point","coordinates":[140.677,42.063]}},{"type":"Feature","properties":{"Name":"Mount Shari","ElevationMeters":1547,"ElevationFeet":5075,"LastEruption":"~250,000 years ago","Region":"Hokkaido"},"geometry":{"type":"Point","coordinates":[144.717,43.765]}},{"type":"Feature","properties":{"Name":"Mount Shiretoko","ElevationMeters":1254,"ElevationFeet":4114,"LastEruption":"~200,000 years ago","Region":"Hokkaido"},"geometry":{"type":"Point","coordinates":[145.273,44.235]}},{"type":"Feature","properties":{"Name":"Mount Tarumae","ElevationMeters":1041,"ElevationFeet":3416,"LastEruption":1981,"Region":"Hokkaido"},"geometry":{"type":"Point","coordinates":[141.376,42.69]}},{"type":"Feature","properties":{"Name":"Mount Tencho","ElevationMeters":1046,"ElevationFeet":3432,"LastEruption":"~50 AD","Region":"Hokkaido"},"geometry":{"type":"Point","coordinates":[145.086,44.044]}},{"type":"Feature","properties":{"Name":"Tokachi-Mitsumata Caldera","ElevationMeters":"-","ElevationFeet":"-","LastEruption":"~1 million years ago","Region":"Hokkaido"},"geometry":{"type":"Point","coordinates":[143.15,43.516]}},{"type":"Feature","properties":{"Name":"Tomuraushi-Chubetsu Volcano Group","ElevationMeters":2141,"ElevationFeet":7024,"LastEruption":"~100,000 years ago","Region":"Hokkaido"},"geometry":{"type":"Point","coordinates":[142.849,43.527]}},{"type":"Feature","properties":{"Name":"Mount Unabetsu","ElevationMeters":1419,"ElevationFeet":4656,"LastEruption":"~500,000 years ago","Region":"Hokkaido"},"geometry":{"type":"Point","coordinates":[144.876,43.876]}},{"type":"Feature","properties":{"Name":"Mount Usu","ElevationMeters":737,"ElevationFeet":2418,"LastEruption":2000,"Region":"Hokkaido"},"geometry":{"type":"Point","coordinates":[140.839,42.543]}},{"type":"Feature","properties":{"Name":"Mount Yotei","ElevationMeters":1898,"ElevationFeet":6227,"LastEruption":"~2500 years ago","Region":"Hokkaido"},"geometry":{"type":"Point","coordinates":[140.811,42.826]}},{"type":"Feature","properties":{"Name":"Abu Volcano Group","ElevationMeters":"-","ElevationFeet":"-","LastEruption":"~8800 years ago","Region":"Honshu"},"geometry":{"type":"Point","coordinates":[131.6,34.5]}},{"type":"Feature","properties":{"Name":"Mount Adatara","ElevationMeters":1718,"ElevationFeet":5635,"LastEruption":1900,"Region":"Honshu"},"geometry":{"type":"Point","coordinates":[140.28,37.62]}},{"type":"Feature","properties":{"Name":"Mount Akagi","ElevationMeters":1828,"ElevationFeet":5997,"LastEruption":1251,"Region":"Honshu"},"geometry":{"type":"Point","coordinates":[139.18,36.53]}},{"type":"Feature","properties":{"Name":"Mount Akandana","ElevationMeters":2109,"ElevationFeet":6919,"LastEruption":"~10,000–6500 years ago","Region":"Honshu"},"geometry":{"type":"Point","coordinates":[137.572,36.2]}},{"type":"Feature","properties":{"Name":"Mount Akita-Komagatake","ElevationMeters":1637,"ElevationFeet":5371,"LastEruption":1971,"Region":"Honshu"},"geometry":{"type":"Point","coordinates":[140.8,39.75]}},{"type":"Feature","properties":{"Name":"Mount Akita-Yakeyama","ElevationMeters":1366,"ElevationFeet":4482,"LastEruption":1997,"Region":"Honshu"},"geometry":{"type":"Point","coordinates":[140.757,39.964]}},{"type":"Feature","properties":{"Name":"Mount Amagi","ElevationMeters":1406,"ElevationFeet":4613,"LastEruption":"~200,000 years ago","Region":"Honshu"},"geometry":{"type":"Point","coordinates":[139.002,34.862]}},{"type":"Feature","properties":{"Name":"Aonoyama Volcano Group","ElevationMeters":"-","ElevationFeet":"-","LastEruption":"~70,000 years ago","Region":"Honshu"},"geometry":{"type":"Point","coordinates":[131.791,34.461]}},{"type":"Feature","properties":{"Name":"Mount Asakusa","ElevationMeters":1585,"ElevationFeet":5200,"LastEruption":"~1.6 million years ago","Region":"Honshu"},"geometry":{"type":"Point","coordinates":[139.234,37.343]}},{"type":"Feature","properties":{"Name":"Mount Asama","ElevationMeters":2544,"ElevationFeet":8340,"LastEruption":2019,"Region":"Honshu"},"geometry":{"type":"Point","coordinates":[138.522,36.405]}},{"type":"Feature","properties":{"Name":"Mount Ashitaka","ElevationMeters":1504,"ElevationFeet":4934,"LastEruption":"~80,000 years ago","Region":"Honshu"},"geometry":{"type":"Point","coordinates":[138.8,35.219]}},{"type":"Feature","properties":{"Name":"Mount Azuma","ElevationMeters":1705,"ElevationFeet":5594,"LastEruption":1977,"Region":"Honshu"},"geometry":{"type":"Point","coordinates":[140.25,37.73]}},{"type":"Feature","properties":{"Name":"Mount Azumaya","ElevationMeters":2354,"ElevationFeet":7723,"LastEruption":"~300,000 years ago","Region":"Honshu"},"geometry":{"type":"Point","coordinates":[138.413,36.542]}},{"type":"Feature","properties":{"Name":"Mount Bandai","ElevationMeters":1819,"ElevationFeet":5968,"LastEruption":1888,"Region":"Honshu"},"geometry":{"type":"Point","coordinates":[140.08,37.6]}},{"type":"Feature","properties":{"Name":"Mount Chokai","ElevationMeters":2237,"ElevationFeet":7326,"LastEruption":1974,"Region":"Honshu"},"geometry":{"type":"Point","coordinates":[140.03,39.08]}},{"type":"Feature","properties":{"Name":"Mount Daisen","ElevationMeters":1729,"ElevationFeet":5673,"LastEruption":"~17,000 years ago","Region":"Honshu"},"geometry":{"type":"Point","coordinates":[133.54,35.371]}},{"type":"Feature","properties":{"Name":"Mount Daruma","ElevationMeters":982,"ElevationFeet":3222,"LastEruption":"~500,000 years ago","Region":"Honshu"},"geometry":{"type":"Point","coordinates":[138.839,34.955]}},{"type":"Feature","properties":{"Name":"Eboshi Volcano Group","ElevationMeters":2227,"ElevationFeet":7306,"LastEruption":"~300,000 years ago","Region":"Honshu"},"geometry":{"type":"Point","coordinates":[138.387,36.433]}},{"type":"Feature","properties":{"Name":"Mount Fuji","ElevationMeters":3776,"ElevationFeet":12388,"LastEruption":1717,"Region":"Honshu"},"geometry":{"type":"Point","coordinates":[138.731,35.358]}},{"type":"Feature","properties":{"Name":"Mount Futamata","ElevationMeters":1548,"ElevationFeet":5079,"LastEruption":"~90,000 years ago","Region":"Honshu"},"geometry":{"type":"Point","coordinates":[139.967,37.246]}},{"type":"Feature","properties":{"Name":"Mount Gassan","ElevationMeters":1984,"ElevationFeet":6509,"LastEruption":"~300,000 years ago","Region":"Honshu"},"geometry":{"type":"Point","coordinates":[140.027,38.549]}},{"type":"Feature","properties":{"Name":"Mount Hachimantai","ElevationMeters":1614,"ElevationFeet":5295,"LastEruption":"~7300 years ago","Region":"Honshu"},"geometry":{"type":"Point","coordinates":[140.85,39.95]}},{"type":"Feature","properties":{"Name":"Hakkoda Caldera","ElevationMeters":"-","ElevationFeet":"-","LastEruption":"~400,000 years ago","Region":"Honshu"},"geometry":{"type":"Point","coordinates":[140.93,40.693]}},{"type":"Feature","properties":{"Name":"Mount Hakkoda","ElevationMeters":1585,"ElevationFeet":5200,"LastEruption":"~1350–1550 AD","Region":"Honshu"},"geometry":{"type":"Point","coordinates":[140.881,40.656]}},{"type":"Feature","properties":{"Name":"Mount Hakone","ElevationMeters":1438,"ElevationFeet":4720,"LastEruption":2015,"Region":"Honshu"},"geometry":{"type":"Point","coordinates":[139.02,35.22]}},{"type":"Feature","properties":{"Name":"Mount Haku","ElevationMeters":2702,"ElevationFeet":8865,"LastEruption":1659,"Region":"Honshu"},"geometry":{"type":"Point","coordinates":[136.78,36.15]}},{"type":"Feature","properties":{"Name":"Mount Haruna","ElevationMeters":1449,"ElevationFeet":4754,"LastEruption":"525–550","Region":"Honshu"},"geometry":{"type":"Point","coordinates":[138.88,36.47]}},{"type":"Feature","properties":{"Name":"Hijiori Caldera","ElevationMeters":516,"ElevationFeet":1693,"LastEruption":"~12,000 years ago","Region":"Honshu"},"geometry":{"type":"Point","coordinates":[140.161,38.608]}},{"type":"Feature","properties":{"Name":"Mount Hiuchigatake","ElevationMeters":2356,"ElevationFeet":7730,"LastEruption":1544,"Region":"Honshu"},"geometry":{"type":"Point","coordinates":[139.28,36.95]}},{"type":"Feature","properties":{"Name":"Mount Hotaka","ElevationMeters":2158,"ElevationFeet":7080,"LastEruption":"~1 million years ago","Region":"Honshu"},"geometry":{"type":"Point","coordinates":[139.132,36.805]}},{"type":"Feature","properties":{"Name":"Ikarigaseki Caldera","ElevationMeters":"-","ElevationFeet":"-","LastEruption":"~1.3 million years ago","Region":"Honshu"},"geometry":{"type":"Point","coordinates":[140.62,40.499]}},{"type":"Feature","properties":{"Name":"Mount Iiji ","ElevationMeters":1112,"ElevationFeet":3648,"LastEruption":"~200,000 years ago","Region":"Honshu"},"geometry":{"type":"Point","coordinates":[138.833,36.956]}},{"type":"Feature","properties":{"Name":"Mount Iizuna","ElevationMeters":1917,"ElevationFeet":6289,"LastEruption":"~150,000 years ago","Region":"Honshu"},"geometry":{"type":"Point","coordinates":[138.136,36.739]}},{"type":"Feature","properties":{"Name":"Mount Iwaki","ElevationMeters":1625,"ElevationFeet":5331,"LastEruption":1863,"Region":"Honshu"},"geometry":{"type":"Point","coordinates":[140.3,40.65]}},{"type":"Feature","properties":{"Name":"Izu-Tobu volcano Group","ElevationMeters":1406,"ElevationFeet":4613,"LastEruption":1989,"Region":"Honshu"},"geometry":{"type":"Point","coordinates":[139.12,34.92]}},{"type":"Feature","properties":{"Name":"Mount Iwate","ElevationMeters":2041,"ElevationFeet":6696,"LastEruption":1919,"Region":"Honshu"},"geometry":{"type":"Point","coordinates":[141.004,39.85]}},{"type":"Feature","properties":{"Name":"Kannabe Volcano Group","ElevationMeters":"-","ElevationFeet":"-","LastEruption":"~20,000–10,000 years ago","Region":"Honshu"},"geometry":{"type":"Point","coordinates":[134.675,35.507]}},{"type":"Feature","properties":{"Name":"Mount Kanpu","ElevationMeters":355,"ElevationFeet":1165,"LastEruption":"~10,000 years ago","Region":"Honshu"},"geometry":{"type":"Point","coordinates":[139.88,39.93]}},{"type":"Feature","properties":{"Name":"Mount Kirigamine","ElevationMeters":1925,"ElevationFeet":6316,"LastEruption":"~750,000 years ago","Region":"Honshu"},"geometry":{"type":"Point","coordinates":[138.196,36.103]}},{"type":"Feature","properties":{"Name":"Mount Komochi","ElevationMeters":1296,"ElevationFeet":4252,"LastEruption":"~200,000 years ago","Region":"Honshu"},"geometry":{"type":"Point","coordinates":[138.998,36.591]}},{"type":"Feature","properties":{"Name":"Mount Kurohime","ElevationMeters":2053,"ElevationFeet":6736,"LastEruption":"~50,000 years ago","Region":"Honshu"},"geometry":{"type":"Point","coordinates":[138.12,36.817]}},{"type":"Feature","properties":{"Name":"Kurofuji Volcano Group","ElevationMeters":1642,"ElevationFeet":5387,"LastEruption":"~500,000 years ago","Region":"Honshu"},"geometry":{"type":"Point","coordinates":[138.536,35.803]}},{"type":"Feature","properties":{"Name":"Mount Kurikoma","ElevationMeters":1628,"ElevationFeet":5341,"LastEruption":1944,"Region":"Honshu"},"geometry":{"type":"Point","coordinates":[140.78,38.95]}},{"type":"Feature","properties":{"Name":"Mount Kusatsu-Shirane","ElevationMeters":2160,"ElevationFeet":7123,"LastEruption":2018,"Region":"Honshu"},"geometry":{"type":"Point","coordinates":[138.535,36.619]}},{"type":"Feature","properties":{"Name":"Mount Onoko","ElevationMeters":1208,"ElevationFeet":3963,"LastEruption":"~1.2 million years ago","Region":"Honshu"},"geometry":{"type":"Point","coordinates":[138.937,36.581]}},{"type":"Feature","properties":{"Name":"Mount Madarao","ElevationMeters":1382,"ElevationFeet":4534,"LastEruption":"~500,000 years ago","Region":"Honshu"},"geometry":{"type":"Point","coordinates":[138.274,36.837]}},{"type":"Feature","properties":{"Name":"Mount Minakami","ElevationMeters":659,"ElevationFeet":2162,"LastEruption":"~300,000 years ago","Region":"Honshu"},"geometry":{"type":"Point","coordinates":[138.222,36.554]}},{"type":"Feature","properties":{"Name":"Megata","ElevationMeters":291,"ElevationFeet":955,"LastEruption":"~29,000–20,000 years ago","Region":"Honshu"},"geometry":{"type":"Point","coordinates":[139.73,39.95]}},{"type":"Feature","properties":{"Name":"Mount Moriyoshi","ElevationMeters":1454,"ElevationFeet":4770,"LastEruption":"~500,000 years ago","Region":"Honshu"},"geometry":{"type":"Point","coordinates":[140.544,39.977]}},{"type":"Feature","properties":{"Name":"Mukaimachi Caldera","ElevationMeters":"-","ElevationFeet":"-","LastEruption":"~600,000 years ago","Region":"Honshu"},"geometry":{"type":"Point","coordinates":[140.51,38.75]}},{"type":"Feature","properties":{"Name":"Mount Mutsu-Hiuchi","ElevationMeters":781,"ElevationFeet":2562,"LastEruption":"~500,000 years ago","Region":"Honshu"},"geometry":{"type":"Point","coordinates":[141.052,41.439]}},{"type":"Feature","properties":{"Name":"Mount Myoko","ElevationMeters":2446,"ElevationFeet":8025,"LastEruption":"~3000 years ago","Region":"Honshu"},"geometry":{"type":"Point","coordinates":[138.113,36.891]}},{"type":"Feature","properties":{"Name":"Mount Naeba","ElevationMeters":2145,"ElevationFeet":7037,"LastEruption":"~200,000 years ago","Region":"Honshu"},"geometry":{"type":"Point","coordinates":[138.684,36.836]}},{"type":"Feature","properties":{"Name":"Mount Nanashigure","ElevationMeters":1063,"ElevationFeet":3488,"LastEruption":"~900,000 years ago","Region":"Honshu"},"geometry":{"type":"Point","coordinates":[141.106,40.069]}},{"type":"Feature","properties":{"Name":"Mount Nantai","ElevationMeters":2484,"ElevationFeet":8148,"LastEruption":"~7000 years ago","Region":"Honshu"},"geometry":{"type":"Point","coordinates":[139.486,36.768]}},{"type":"Feature","properties":{"Name":"Narugo Caldera","ElevationMeters":462,"ElevationFeet":1542,"LastEruption":837,"Region":"Honshu"},"geometry":{"type":"Point","coordinates":[140.73,38.73]}},{"type":"Feature","properties":{"Name":"Mount Nasu","ElevationMeters":1917,"ElevationFeet":6283,"LastEruption":1963,"Region":"Honshu"},"geometry":{"type":"Point","coordinates":[139.97,37.12]}},{"type":"Feature","properties":{"Name":"Mount Nekoma","ElevationMeters":1404,"ElevationFeet":4606,"LastEruption":"~800,000 years ago","Region":"Honshu"},"geometry":{"type":"Point","coordinates":[140.016,37.615]}},{"type":"Feature","properties":{"Name":"Mount Niigata-Yakeyama","ElevationMeters":2400,"ElevationFeet":7874,"LastEruption":2016,"Region":"Honshu"},"geometry":{"type":"Point","coordinates":[138.036,36.92]}},{"type":"Feature","properties":{"Name":"Mount Nikko-Shirane","ElevationMeters":2578,"ElevationFeet":8458,"LastEruption":1890,"Region":"Honshu"},"geometry":{"type":"Point","coordinates":[139.376,36.798]}},{"type":"Feature","properties":{"Name":"Nodai Caldera","ElevationMeters":"-","ElevationFeet":"-","LastEruption":"~1.9 million years ago","Region":"Honshu"},"geometry":{"type":"Point","coordinates":[140.867,41.267]}},{"type":"Feature","properties":{"Name":"Mount Nyoho-Akanagi","ElevationMeters":2483,"ElevationFeet":8146,"LastEruption":"~80,000 years ago","Region":"Honshu"},"geometry":{"type":"Point","coordinates":[139.536,36.811]}},{"type":"Feature","properties":{"Name":"Mount Norikura","ElevationMeters":3026,"ElevationFeet":9928,"LastEruption":"~2000 years ago","Region":"Honshu"},"geometry":{"type":"Point","coordinates":[137.55,36.106]}},{"type":"Feature","properties":{"Name":"Numazawa","ElevationMeters":1100,"ElevationFeet":3609,"LastEruption":"~5400 years ago","Region":"Honshu"},"geometry":{"type":"Point","coordinates":[139.572,37.454]}},{"type":"Feature","properties":{"Name":"Oki-Dogo","ElevationMeters":151,"ElevationFeet":495,"LastEruption":"~420,000 years ago","Region":"Honshu"},"geometry":{"type":"Point","coordinates":[133.324,36.181]}},{"type":"Feature","properties":{"Name":"Okiura Caldera","ElevationMeters":"-","ElevationFeet":"-","LastEruption":"~1.5 million years ago","Region":"Honshu"},"geometry":{"type":"Point","coordinates":[140.733,40.567]}},{"type":"Feature","properties":{"Name":"Mount Omanago","ElevationMeters":2376,"ElevationFeet":7795,"LastEruption":"~470,000 years ago","Region":"Honshu"},"geometry":{"type":"Point","coordinates":[139.507,36.796]}},{"type":"Feature","properties":{"Name":"Mount Ontake","ElevationMeters":3063,"ElevationFeet":10049,"LastEruption":2020,"Region":"Honshu"},"geometry":{"type":"Point","coordinates":[137.48,35.89]}},{"type":"Feature","properties":{"Name":"Onikobe Caldera","ElevationMeters":"-","ElevationFeet":"-","LastEruption":"~200,000 years ago","Region":"Honshu"},"geometry":{"type":"Point","coordinates":[140.69,38.83]}},{"type":"Feature","properties":{"Name":"Mount Osore","ElevationMeters":879,"ElevationFeet":2884,"LastEruption":"~20,000 years ago OR 1787","Region":"Honshu"},"geometry":{"type":"Point","coordinates":[141.08,41.32]}},{"type":"Feature","properties":{"Name":"Mount Sanbe","ElevationMeters":1126,"ElevationFeet":3694,"LastEruption":"~650–750 AD","Region":"Honshu"},"geometry":{"type":"Point","coordinates":[132.62,35.13]}},{"type":"Feature","properties":{"Name":"Mount Shiga","ElevationMeters":2041,"ElevationFeet":6696,"LastEruption":"~10,000 years ago","Region":"Honshu"},"geometry":{"type":"Point","coordinates":[138.52,36.7]}},{"type":"Feature","properties":{"Name":"Mount Sukai","ElevationMeters":2144,"ElevationFeet":7034,"LastEruption":"~900,000 years ago","Region":"Honshu"},"geometry":{"type":"Point","coordinates":[139.337,36.689]}},{"type":"Feature","properties":{"Name":"Mount Takahara","ElevationMeters":1795,"ElevationFeet":5889,"LastEruption":"~6500 years ago","Region":"Honshu"},"geometry":{"type":"Point","coordinates":[139.78,36.9]}},{"type":"Feature","properties":{"Name":"Mount Takara","ElevationMeters":350,"ElevationFeet":1148,"LastEruption":"~300,000 years ago","Region":"Honshu"},"geometry":{"type":"Point","coordinates":[134.919,35.346]}},{"type":"Feature","properties":{"Name":"Mount Takayashiro","ElevationMeters":1351,"ElevationFeet":4432,"LastEruption":"~200,000 years ago","Region":"Honshu"},"geometry":{"type":"Point","coordinates":[138.403,36.799]}},{"type":"Feature","properties":{"Name":"Midagahara (A.K.A. Tateyama)","ElevationMeters":"-","ElevationFeet":"-","LastEruption":"1836 & 1949","Region":"Honshu"},"geometry":{"type":"Point","coordinates":[137.6,36.57]}},{"type":"Feature","properties":{"Name":"Tazawako Caldera","ElevationMeters":"-","ElevationFeet":"-","LastEruption":"~1.4 million years ago","Region":"Honshu"},"geometry":{"type":"Point","coordinates":[140.661,39.722]}},{"type":"Feature","properties":{"Name":"Tokachidake Volcano Group","ElevationMeters":2077,"ElevationFeet":6814,"LastEruption":2004,"Region":"Honshu"},"geometry":{"type":"Point","coordinates":[142.686,43.418]}},{"type":"Feature","properties":{"Name":"Towada Caldera","ElevationMeters":1159,"ElevationFeet":3802,"LastEruption":915,"Region":"Honshu"},"geometry":{"type":"Point","coordinates":[140.92,40.47]}},{"type":"Feature","properties":{"Name":"Washiba-Kumontaira","ElevationMeters":2924,"ElevationFeet":9593,"LastEruption":"4000 BC","Region":"Honshu"},"geometry":{"type":"Point","coordinates":[137.594,36.408]}},{"type":"Feature","properties":{"Name":"Mount Yake","ElevationMeters":2455,"ElevationFeet":8054,"LastEruption":1963,"Region":"Honshu"},"geometry":{"type":"Point","coordinates":[137.587,36.226]}},{"type":"Feature","properties":{"Name":"Mount Yakeishi","ElevationMeters":1548,"ElevationFeet":5079,"LastEruption":"~200,000 years ago","Region":"Honshu"},"geometry":{"type":"Point","coordinates":[140.829,39.164]}},{"type":"Feature","properties":{"Name":"Kita-Yatsugatake (Northern Yatsugatake Volcanic Group)","ElevationMeters":"-","ElevationFeet":"-","LastEruption":"~1050–1250 AD","Region":"Honshu"},"geometry":{"type":"Point","coordinates":[138.32,36.088]}},{"type":"Feature","properties":{"Name":"Minami-Yatsugatake (Southern Yatsugatake Volcanic Group)","ElevationMeters":"-","ElevationFeet":"-","LastEruption":"~100,000 years ago","Region":"Honshu"},"geometry":{"type":"Point","coordinates":[138.37,35.971]}},{"type":"Feature","properties":{"Name":"Mount Tateshina (Part of Northern Yatsugatake Volcanic Group)","ElevationMeters":2530,"ElevationFeet":8300,"LastEruption":1940,"Region":"Honshu"},"geometry":{"type":"Point","coordinates":[138.3,36.1]}},{"type":"Feature","properties":{"Name":"Mount Zao","ElevationMeters":1841,"ElevationFeet":6040,"LastEruption":1785,"Region":"Honshu"},"geometry":{"type":"Point","coordinates":[140.45,38.15]}},{"type":"Feature","properties":{"Name":"Aogashima","ElevationMeters":423,"ElevationFeet":1388,"LastEruption":1970,"Region":"Izu_Islands"},"geometry":{"type":"Point","coordinates":[139.77,32.45]}},{"type":"Feature","properties":{"Name":"Bayonnaise Rocks","ElevationMeters":11,"ElevationFeet":36,"LastEruption":1605,"Region":"Izu_Islands"},"geometry":{"type":"Point","coordinates":[139.918,31.888]}},{"type":"Feature","properties":{"Name":"Hachijojima","ElevationMeters":854,"ElevationFeet":2802,"LastEruption":1990,"Region":"Izu_Islands"},"geometry":{"type":"Point","coordinates":[139.77,33.13]}},{"type":"Feature","properties":{"Name":"Izu-Oshima","ElevationMeters":758,"ElevationFeet":2507,"LastEruption":838,"Region":"Izu_Islands"},"geometry":{"type":"Point","coordinates":[139.394,34.726]}},{"type":"Feature","properties":{"Name":"Kozushima","ElevationMeters":574,"ElevationFeet":1877,"LastEruption":"~20,000 years ago","Region":"Izu_Islands"},"geometry":{"type":"Point","coordinates":[139.15,34.22]}},{"type":"Feature","properties":{"Name":"Kurose","ElevationMeters":-110,"ElevationFeet":-361,"LastEruption":"~6300 years ago","Region":"Izu_Islands"},"geometry":{"type":"Point","coordinates":[139.68,33.4]}},{"type":"Feature","properties":{"Name":"Mikurajima","ElevationMeters":851,"ElevationFeet":2792,"LastEruption":2013,"Region":"Izu_Islands"},"geometry":{"type":"Point","coordinates":[139.605,33.871]}},{"type":"Feature","properties":{"Name":"Miyakejima","ElevationMeters":813,"ElevationFeet":2674,"LastEruption":1970,"Region":"Izu_Islands"},"geometry":{"type":"Point","coordinates":[139.526,34.086]}},{"type":"Feature","properties":{"Name":"Myojinsho (A.K.A. Myojin Reef)","ElevationMeters":-50,"ElevationFeet":-164,"LastEruption":887,"Region":"Izu_Islands"},"geometry":{"type":"Point","coordinates":[140.021,31.918]}},{"type":"Feature","properties":{"Name":"Niijima","ElevationMeters":432,"ElevationFeet":1417,"LastEruption":1975,"Region":"Izu_Islands"},"geometry":{"type":"Point","coordinates":[139.27,34.37]}},{"type":"Feature","properties":{"Name":"Sofugan (A.K.A. Lot's Wife)","ElevationMeters":99,"ElevationFeet":325,"LastEruption":1916,"Region":"Izu_Islands"},"geometry":{"type":"Point","coordinates":[140.342,29.793]}},{"type":"Feature","properties":{"Name":"Sumisujima (A.K.A. Smith Rocks)","ElevationMeters":136,"ElevationFeet":446,"LastEruption":"~9100–4000 years ago","Region":"Izu_Islands"},"geometry":{"type":"Point","coordinates":[140.05,31.439]}},{"type":"Feature","properties":{"Name":"Toshima","ElevationMeters":508,"ElevationFeet":1667,"LastEruption":2002,"Region":"Izu_Islands"},"geometry":{"type":"Point","coordinates":[139.28,34.52]}},{"type":"Feature","properties":{"Name":"Torishima (A.K.A. Izu-Torishima)","ElevationMeters":394,"ElevationFeet":1293,"LastEruption":2017,"Region":"Izu_Islands"},"geometry":{"type":"Point","coordinates":[140.302,30.484]}},{"type":"Feature","properties":{"Name":"Nishinoshima","ElevationMeters":142,"ElevationFeet":466,"LastEruption":2005,"Region":"Ogasawara_Archipelago"},"geometry":{"type":"Point","coordinates":[140.877,27.274]}},{"type":"Feature","properties":{"Name":"Fukutoku-Okanoba","ElevationMeters":-25,"ElevationFeet":-82,"LastEruption":1974,"Region":"Ogasawara_Archipelago"},"geometry":{"type":"Point","coordinates":[141.485,24.28]}},{"type":"Feature","properties":{"Name":"Fukujin Seamount","ElevationMeters":-43,"ElevationFeet":-141,"LastEruption":1945,"Region":"Ogasawara_Archipelago"},"geometry":{"type":"Point","coordinates":[143.717,21.767]}},{"type":"Feature","properties":{"Name":"Funka Asane","ElevationMeters":-20,"ElevationFeet":-67,"LastEruption":"~140,000 years ago","Region":"Ogasawara_Archipelago"},"geometry":{"type":"Point","coordinates":[141.238,25.455]}},{"type":"Feature","properties":{"Name":"Kita-Iojima (North Iwo Jima)","ElevationMeters":792,"ElevationFeet":2598,"LastEruption":2015,"Region":"Ogasawara_Archipelago"},"geometry":{"type":"Point","coordinates":[141.28,25.43]}},{"type":"Feature","properties":{"Name":"Iojima (Iwo Jima)","ElevationMeters":161,"ElevationFeet":528,"LastEruption":1984,"Region":"Ogasawara_Archipelago"},"geometry":{"type":"Point","coordinates":[141.315,24.781]}},{"type":"Feature","properties":{"Name":"Kaitoku Seamount","ElevationMeters":-103,"ElevationFeet":-338,"LastEruption":1988,"Region":"Ogasawara_Archipelago"},"geometry":{"type":"Point","coordinates":[141.098,26.127]}},{"type":"Feature","properties":{"Name":"Kaikata Seamount","ElevationMeters":-165,"ElevationFeet":-541,"LastEruption":1959,"Region":"Ogasawara_Archipelago"},"geometry":{"type":"Point","coordinates":[140.929,26.667]}},{"type":"Feature","properties":{"Name":"Kasuga Seamount","ElevationMeters":-598,"ElevationFeet":-1962,"LastEruption":1988,"Region":"Ogasawara_Archipelago"},"geometry":{"type":"Point","coordinates":[142.717,22.767]}},{"type":"Feature","properties":{"Name":"Minami-Kasuga Seamount","ElevationMeters":-274,"ElevationFeet":-899,"LastEruption":1976,"Region":"Ogasawara_Archipelago"},"geometry":{"type":"Point","coordinates":[143.633,21.6]}},{"type":"Feature","properties":{"Name":"Kita-Fukutokutai","ElevationMeters":-55,"ElevationFeet":-180,"LastEruption":1979,"Region":"Ogasawara_Archipelago"},"geometry":{"type":"Point","coordinates":[141.419,24.414]}},{"type":"Feature","properties":{"Name":"Minami-Hiyoshi Seamount","ElevationMeters":-30,"ElevationFeet":-98,"LastEruption":1990,"Region":"Ogasawara_Archipelago"},"geometry":{"type":"Point","coordinates":[141.935,23.5]}},{"type":"Feature","properties":{"Name":"Nikko Seamount","ElevationMeters":-612,"ElevationFeet":-2008,"LastEruption":1991,"Region":"Ogasawara_Archipelago"},"geometry":{"type":"Point","coordinates":[142.3,23.083]}},{"type":"Feature","properties":{"Name":"Mokuyo Seamount","ElevationMeters":-920,"ElevationFeet":-3018,"LastEruption":"~25,000 years ago","Region":"Ogasawara_Archipelago"},"geometry":{"type":"Point","coordinates":[140.566,28.317]}},{"type":"Feature","properties":{"Name":"Suiyo Seamount","ElevationMeters":-1418,"ElevationFeet":-4652,"LastEruption":"~110,000 years ago","Region":"Ogasawara_Archipelago"},"geometry":{"type":"Point","coordinates":[140.633,28.6]}},{"type":"Feature","properties":{"Name":"Aira Caldera","ElevationMeters":"-","ElevationFeet":"-","LastEruption":"~19,000 years ago","Region":"Kyushu"},"geometry":{"type":"Point","coordinates":[130.705,31.656]}},{"type":"Feature","properties":{"Name":"Ata Caldera","ElevationMeters":"-","ElevationFeet":"-","LastEruption":2019,"Region":"Kyushu"},"geometry":{"type":"Point","coordinates":[130.683,31.359]}},{"type":"Feature","properties":{"Name":"Wakamiko Caldera","ElevationMeters":"-","ElevationFeet":"-","LastEruption":"~2400 years ago","Region":"Kyushu"},"geometry":{"type":"Point","coordinates":[130.783,31.666]}},{"type":"Feature","properties":{"Name":"Mount Aso (A.K.A. Aso Caldera)","ElevationMeters":1592,"ElevationFeet":5223,"LastEruption":"~1.1 million years ago","Region":"Kyushu"},"geometry":{"type":"Point","coordinates":[131.106,32.881]}},{"type":"Feature","properties":{"Name":"Fukue Volcano Group","ElevationMeters":315,"ElevationFeet":1033,"LastEruption":"~30,000 years ago","Region":"Kyushu"},"geometry":{"type":"Point","coordinates":[128.861,32.653]}},{"type":"Feature","properties":{"Name":"Mount Futago","ElevationMeters":720,"ElevationFeet":2362,"LastEruption":"~4900 years ago","Region":"Kyushu"},"geometry":{"type":"Point","coordinates":[131.601,33.583]}},{"type":"Feature","properties":{"Name":"Ibusuki Volcanic Field","ElevationMeters":922,"ElevationFeet":3025,"LastEruption":"~350,000 years ago","Region":"Kyushu"},"geometry":{"type":"Point","coordinates":[130.57,31.22]}},{"type":"Feature","properties":{"Name":"Ikeda (Part of Ibusuki Volcanic Field)","ElevationMeters":256,"ElevationFeet":840,"LastEruption":885,"Region":"Kyushu"},"geometry":{"type":"Point","coordinates":[130.564,31.235]}},{"type":"Feature","properties":{"Name":"Imuta","ElevationMeters":509,"ElevationFeet":1670,"LastEruption":"~350,000–300,000 years ago","Region":"Kyushu"},"geometry":{"type":"Point","coordinates":[130.461,31.822]}},{"type":"Feature","properties":{"Name":"Mount Kaimon","ElevationMeters":922,"ElevationFeet":3025,"LastEruption":"~200,000 years ago","Region":"Kyushu"},"geometry":{"type":"Point","coordinates":[130.528,31.18]}},{"type":"Feature","properties":{"Name":"Kakuto Caldera","ElevationMeters":"-","ElevationFeet":"-","LastEruption":2018,"Region":"Kyushu"},"geometry":{"type":"Point","coordinates":[130.764,32.0455]}},{"type":"Feature","properties":{"Name":"Mount Kinbo (Kinpo)","ElevationMeters":665,"ElevationFeet":2182,"LastEruption":"~400,000 years ago","Region":"Kyushu"},"geometry":{"type":"Point","coordinates":[130.639,32.814]}},{"type":"Feature","properties":{"Name":"Mount Kirishima","ElevationMeters":1700,"ElevationFeet":5577,"LastEruption":1996,"Region":"Kyushu"},"geometry":{"type":"Point","coordinates":[130.864,31.931]}},{"type":"Feature","properties":{"Name":"Kobayashi Caldera","ElevationMeters":"-","ElevationFeet":"-","LastEruption":2016,"Region":"Kyushu"},"geometry":{"type":"Point","coordinates":[130.976,31.99]}},{"type":"Feature","properties":{"Name":"Mount Kuju","ElevationMeters":1791,"ElevationFeet":5876,"LastEruption":"~300,000 years ago","Region":"Kyushu"},"geometry":{"type":"Point","coordinates":[131.251,33.083]}},{"type":"Feature","properties":{"Name":"Sakurajima","ElevationMeters":1117,"ElevationFeet":3665,"LastEruption":"~8200 years ago","Region":"Kyushu"},"geometry":{"type":"Point","coordinates":[130.657,31.585]}},{"type":"Feature","properties":{"Name":"Ojikajima Volcano Group","ElevationMeters":111,"ElevationFeet":364,"LastEruption":"~8100–8000 years ago","Region":"Kyushu"},"geometry":{"type":"Point","coordinates":[129.063,33.201]}},{"type":"Feature","properties":{"Name":"Lake Sumiyoshi","ElevationMeters":"-","ElevationFeet":"-","LastEruption":"~500,000 years ago","Region":"Kyushu"},"geometry":{"type":"Point","coordinates":[130.591,31.771]}},{"type":"Feature","properties":{"Name":"Yonemaru","ElevationMeters":"-","ElevationFeet":"-","LastEruption":"~400,000 years ago","Region":"Kyushu"},"geometry":{"type":"Point","coordinates":[130.564,31.775]}},{"type":"Feature","properties":{"Name":"Mount Takasaki","ElevationMeters":628,"ElevationFeet":2060,"LastEruption":867,"Region":"Kyushu"},"geometry":{"type":"Point","coordinates":[131.524,33.252]}},{"type":"Feature","properties":{"Name":"Mount Tara","ElevationMeters":1076,"ElevationFeet":3530,"LastEruption":1996,"Region":"Kyushu"},"geometry":{"type":"Point","coordinates":[130.071,32.974]}},{"type":"Feature","properties":{"Name":"Mount Tsurumi and Mount Garan","ElevationMeters":1584,"ElevationFeet":5197,"LastEruption":"~1900–2000 years ago","Region":"Kyushu"},"geometry":{"type":"Point","coordinates":[131.432,33.28]}},{"type":"Feature","properties":{"Name":"Mount Unzen","ElevationMeters":1500,"ElevationFeet":4921,"LastEruption":"Late Pleistocene","Region":"Kyushu"},"geometry":{"type":"Point","coordinates":[130.294,32.757]}},{"type":"Feature","properties":{"Name":"Mount Yufu","ElevationMeters":1583,"ElevationFeet":5194,"LastEruption":"~200,000 years ago","Region":"Kyushu"},"geometry":{"type":"Point","coordinates":[131.39,33.282]}},{"type":"Feature","properties":{"Name":"Akusekijima","ElevationMeters":586,"ElevationFeet":1923,"LastEruption":"~30,000–20,000 years ago","Region":"Ryukyu_Islands"},"geometry":{"type":"Point","coordinates":[129.6,29.45]}},{"type":"Feature","properties":{"Name":"Gajajima","ElevationMeters":497,"ElevationFeet":1631,"LastEruption":1924,"Region":"Ryukyu_Islands"},"geometry":{"type":"Point","coordinates":[129.541,29.903]}},{"type":"Feature","properties":{"Name":"Kogajajima","ElevationMeters":301,"ElevationFeet":988,"LastEruption":1968,"Region":"Ryukyu_Islands"},"geometry":{"type":"Point","coordinates":[129.625,29.879]}},{"type":"Feature","properties":{"Name":"Submarine Volcano NNE of Iriomotejima","ElevationMeters":"-","ElevationFeet":"-","LastEruption":2013,"Region":"Ryukyu_Islands"},"geometry":{"type":"Point","coordinates":[124,24.558]}},{"type":"Feature","properties":{"Name":"Iotorishima","ElevationMeters":212,"ElevationFeet":696,"LastEruption":"~780–840 AD","Region":"Ryukyu_Islands"},"geometry":{"type":"Point","coordinates":[128.224,27.877]}},{"type":"Feature","properties":{"Name":"Kikai Caldera","ElevationMeters":704,"ElevationFeet":2310,"LastEruption":2018,"Region":"Ryukyu_Islands"},"geometry":{"type":"Point","coordinates":[130.308,30.789]}},{"type":"Feature","properties":{"Name":"Kuchinoshima","ElevationMeters":628,"ElevationFeet":2060,"LastEruption":1914,"Region":"Ryukyu_Islands"},"geometry":{"type":"Point","coordinates":[129.924,29.967]}},{"type":"Feature","properties":{"Name":"Kuchinoerabujima","ElevationMeters":649,"ElevationFeet":2129,"LastEruption":2016,"Region":"Ryukyu_Islands"},"geometry":{"type":"Point","coordinates":[130.22,30.43]}},{"type":"Feature","properties":{"Name":"Nakanoshima","ElevationMeters":979,"ElevationFeet":3212,"LastEruption":"~10,000 years ago","Region":"Ryukyu_Islands"},"geometry":{"type":"Point","coordinates":[129.856,29.859]}},{"type":"Feature","properties":{"Name":"Suwanosejima","ElevationMeters":799,"ElevationFeet":2621,"LastEruption":2016,"Region":"Ryukyu_Islands"},"geometry":{"type":"Point","coordinates":[129.714,29.638]}},{"type":"Feature","properties":{"Name":"Yokoatejima","ElevationMeters":495,"ElevationFeet":1624,"LastEruption":"~10,000 years ago","Region":"Ryukyu_Islands"},"geometry":{"type":"Point","coordinates":[128.996,28.799]}}]}